{"type": "FeatureCollection", "features": [ {"type": "Feature", "properties": {"norad_id": 57401, "name": "TIANMU-1 09", "group": "weather", "lat": -67.92150143532479, "lon": 53.50326719479954, "alt_km": 493.029198237894, "timestamp": "2025-12-11T22:43:46.913668+00:00", "meta": {"OBJECT_NAME": "TIANMU-1 09", "OBJECT_ID": "2023-101C", "EPOCH": "2025-12-11T13:36:07.924032", "MEAN_MOTION": 15.28069377, "ECCENTRICITY": 0.00067765, "INCLINATION": 97.2824, "RA_OF_ASC_NODE": 34.7544, "ARG_OF_PERICENTER": 87.079, "MEAN_ANOMALY": 273.1225, "EPHEMERIS_TYPE": 0, "CLASSIFICATION_TYPE": "U", "NORAD_CAT_ID": 57401, "ELEMENT_SET_NO": 999, "REV_AT_EPOCH": 13297, "BSTAR": 0.00078695306, "MEAN_MOTION_DOT": 0.00021522, "MEAN_MOTION_DDOT": 0}, "tle": {"line1": "1 57401U 23101C   25345.56675838  .00021522  00000+0  78695-3 0  9990", "line2": "2 57401  97.2824  34.7544 0006776  87.0790 273.1225 15.28069377132977"}}, "geometry": {"type": "Point", "coordinates": [53.50326719479954, -67.92150143532479]}}, {"type": "Feature", "properties": {"norad_id": 57402, "name": "TIANMU-1 10", "group": "weather", "lat": 75.16381844168257, "lon": -115.12275022655244, "alt_km": 468.8862870654111, "timestamp": "2025-12-11T22:43:46.913681+00:00", "meta": {"OBJECT_NAME": "TIANMU-1 10", "OBJECT_ID": "2023-101D", "EPOCH": "2025-12-11T14:25:23.650752", "MEAN_MOTION": 15.28047998, "ECCENTRICITY": 0.00085779, "INCLINATION": 97.2905, "RA_OF_ASC_NODE": 35.6364, "ARG_OF_PERICENTER": 86.7531, "MEAN_ANOMALY": 273.469, "EPHEMERIS_TYPE": 0, "CLASSIFICATION_TYPE": "U", "NORAD_CAT_ID": 57402, "ELEMENT_SET_NO": 999, "REV_AT_EPOCH": 13297, "BSTAR": 0.00041132737, "MEAN_MOTION_DOT": 0.00011197, "MEAN_MOTION_DDOT": 0}, "tle": {"line1": "1 57402U 23101D   25345.60096818  .00011197  00000+0  41133-3 0  9995", "line2": "2 57402  97.2905  35.6364 0008577  86.7531 273.4690 15.28047998132972"}}, "geometry": {"type": "Point", "coordinates": [-115.12275022655244, 75.16381844168257]}}, {"type": "Feature", "properties": {"norad_id": 57490, "name": "FENGYUN 3F", "group": "weather", "lat": -48.585186433914515, "lon": 64.25976454727926, "alt_km": 832.9251328254413, "timestamp": "2025-12-11T22:43:46.913693+00:00", "meta": {"OBJECT_NAME": "FENGYUN 3F", "OBJECT_ID": "2023-111A", "EPOCH": "2025-12-11T14:30:20.223936", "MEAN_MOTION": 14.19894209, "ECCENTRICITY": 6.635e-05, "INCLINATION": 98.7085, "RA_OF_ASC_NODE": 53.9161, "ARG_OF_PERICENTER": 99.6428, "MEAN_ANOMALY": 260.4824, "EPHEMERIS_TYPE": 0, "CLASSIFICATION_TYPE": "U", "NORAD_CAT_ID": 57490, "ELEMENT_SET_NO": 999, "REV_AT_EPOCH": 12224, "BSTAR": 0.00015255069, "MEAN_MOTION_DOT": 2.8e-06, "MEAN_MOTION_DDOT": 0}, "tle": {"line1": "1 57490U 23111A   25345.60440074  .00000280  00000+0  15255-3 0  9997", "line2": "2 57490  98.7085  53.9161 0000663  99.6428 260.4824 14.19894209122246"}}, "geometry": {"type": "Point", "coordinates": [64.25976454727926, -48.585186433914515]}}, {"type": "Feature", "properties": {"norad_id": 58584, "name": "ARKTIKA-M 2", "group": "weather", "lat": 54.77045381552613, "lon": -139.369592290118, "alt_km": 32309.737675388624, "timestamp": "2025-12-11T22:43:46.913706+00:00", "meta": {"OBJECT_NAME": "ARKTIKA-M 2", "OBJECT_ID": "2023-198A", "EPOCH": "2025-12-08T20:10:13.977120", "MEAN_MOTION": 2.0060476, "ECCENTRICITY": 0.68646991, "INCLINATION": 63.2247, "RA_OF_ASC_NODE": 175.3152, "ARG_OF_PERICENTER": 268.1185, "MEAN_ANOMALY": 18.8267, "EPHEMERIS_TYPE": 0, "CLASSIFICATION_TYPE": "U", "NORAD_CAT_ID": 58584, "ELEMENT_SET_NO": 999, "REV_AT_EPOCH": 1450, "BSTAR": 0, "MEAN_MOTION_DOT": 1.66e-06, "MEAN_MOTION_DDOT": 0}, "tle": {"line1": "1 58584U 23198A   25342.84043955  .00000166  00000+0  00000+0 0  9998", "line2": "2 58584  63.2247 175.3152 6864699 268.1185  18.8267  2.00604760 14506"}}, "geometry": {"type": "Point", "coordinates": [-139.369592290118, 54.77045381552613]}}, {"type": "Feature", "properties": {"norad_id": 58645, "name": "TIANMU-1 11", "group": "weather", "lat": -66.9787308169424, "lon": 23.29685533130725, "alt_km": 494.13370727420715, "timestamp": "2025-12-11T22:43:46.913730+00:00", "meta": {"OBJECT_NAME": "TIANMU-1 11", "OBJECT_ID": "2023-205A", "EPOCH": "2025-12-11T12:00:04.679424", "MEAN_MOTION": 15.24588775, "ECCENTRICITY": 0.00080229, "INCLINATION": 97.3611, "RA_OF_ASC_NODE": 5.1449, "ARG_OF_PERICENTER": 315.5983, "MEAN_ANOMALY": 44.4611, "EPHEMERIS_TYPE": 0, "CLASSIFICATION_TYPE": "U", "NORAD_CAT_ID": 58645, "ELEMENT_SET_NO": 999, "REV_AT_EPOCH": 10890, "BSTAR": 0.0007911299, "MEAN_MOTION_DOT": 0.00019479, "MEAN_MOTION_DDOT": 0}, "tle": {"line1": "1 58645U 23205A   25345.50005416  .00019479  00000+0  79113-3 0  9993", "line2": "2 58645  97.3611   5.1449 0008022 315.5983  44.4611 15.24588775108906"}}, "geometry": {"type": "Point", "coordinates": [23.29685533130725, -66.9787308169424]}}, {"type": "Feature", "properties": {"norad_id": 58646, "name": "TIANMU-1 12", "group": "weather", "lat": 35.1033374977342, "lon": -169.3972781942153, "alt_km": 493.5948536716469, "timestamp": "2025-12-11T22:43:46.913750+00:00", "meta": {"OBJECT_NAME": "TIANMU-1 12", "OBJECT_ID": "2023-205B", "EPOCH": "2025-12-11T12:38:44.689632", "MEAN_MOTION": 15.24471379, "ECCENTRICITY": 0.00058901, "INCLINATION": 97.36, "RA_OF_ASC_NODE": 4.9772, "ARG_OF_PERICENTER": 296.7254, "MEAN_ANOMALY": 63.338, "EPHEMERIS_TYPE": 0, "CLASSIFICATION_TYPE": "U", "NORAD_CAT_ID": 58646, "ELEMENT_SET_NO": 999, "REV_AT_EPOCH": 10889, "BSTAR": 0.00079773949, "MEAN_MOTION_DOT": 0.00019566, "MEAN_MOTION_DDOT": 0}, "tle": {"line1": "1 58646U 23205B   25345.52690613  .00019566  00000+0  79774-3 0  9995", "line2": "2 58646  97.3600   4.9772 0005890 296.7254  63.3380 15.24471379108894"}}, "geometry": {"type": "Point", "coordinates": [-169.3972781942153, 35.1033374977342]}}, {"type": "Feature", "properties": {"norad_id": 58647, "name": "TIANMU-1 13", "group": "weather", "lat": -39.3220970047166, "lon": 11.670591033352968, "alt_km": 496.10511218690226, "timestamp": "2025-12-11T22:43:46.913769+00:00", "meta": {"OBJECT_NAME": "TIANMU-1 13", "OBJECT_ID": "2023-205C", "EPOCH": "2025-12-11T15:01:37.322688", "MEAN_MOTION": 15.24501374, "ECCENTRICITY": 0.00060507, "INCLINATION": 97.3627, "RA_OF_ASC_NODE": 5.2751, "ARG_OF_PERICENTER": 272.2545, "MEAN_ANOMALY": 87.8, "EPHEMERIS_TYPE": 0, "CLASSIFICATION_TYPE": "U", "NORAD_CAT_ID": 58647, "ELEMENT_SET_NO": 999, "REV_AT_EPOCH": 10890, "BSTAR": 0.00038169381, "MEAN_MOTION_DOT": 9.321e-05, "MEAN_MOTION_DDOT": 0}, "tle": {"line1": "1 58647U 23205C   25345.62612642  .00009321  00000+0  38169-3 0  9994", "line2": "2 58647  97.3627   5.2751 0006050 272.2545  87.8000 15.24501374108907"}}, "geometry": {"type": "Point", "coordinates": [11.670591033352968, -39.3220970047166]}}, {"type": "Feature", "properties": {"norad_id": 58648, "name": "TIANMU-1 14", "group": "weather", "lat": 50.8600739392019, "lon": -4.193662454891061, "alt_km": 490.9538262244514, "timestamp": "2025-12-11T22:43:46.913789+00:00", "meta": {"OBJECT_NAME": "TIANMU-1 14", "OBJECT_ID": "2023-205D", "EPOCH": "2025-12-11T11:28:39.572256", "MEAN_MOTION": 15.24496533, "ECCENTRICITY": 0.00068805, "INCLINATION": 97.3559, "RA_OF_ASC_NODE": 4.4796, "ARG_OF_PERICENTER": 278.1719, "MEAN_ANOMALY": 81.8738, "EPHEMERIS_TYPE": 0, "CLASSIFICATION_TYPE": "U", "NORAD_CAT_ID": 58648, "ELEMENT_SET_NO": 999, "REV_AT_EPOCH": 10888, "BSTAR": 0.00083373237, "MEAN_MOTION_DOT": 0.00020474, "MEAN_MOTION_DDOT": 0}, "tle": {"line1": "1 58648U 23205D   25345.47823579  .00020474  00000+0  83373-3 0  9990", "line2": "2 58648  97.3559   4.4796 0006880 278.1719  81.8738 15.24496533108880"}}, "geometry": {"type": "Point", "coordinates": [-4.193662454891061, 50.8600739392019]}}, {"type": "Feature", "properties": {"norad_id": 58660, "name": "TIANMU-1 19", "group": "weather", "lat": -62.24431584323985, "lon": 111.36034696011158, "alt_km": 487.33115103481305, "timestamp": "2025-12-11T22:43:46.913810+00:00", "meta": {"OBJECT_NAME": "TIANMU-1 19", "OBJECT_ID": "2023-208A", "EPOCH": "2025-12-11T13:34:28.640928", "MEAN_MOTION": 15.27826854, "ECCENTRICITY": 0.00040593, "INCLINATION": 97.4384, "RA_OF_ASC_NODE": 96.6048, "ARG_OF_PERICENTER": 258.3743, "MEAN_ANOMALY": 101.7041, "EPHEMERIS_TYPE": 0, "CLASSIFICATION_TYPE": "U", "NORAD_CAT_ID": 58660, "ELEMENT_SET_NO": 999, "REV_AT_EPOCH": 10864, "BSTAR": 0.00083050895, "MEAN_MOTION_DOT": 0.00022541, "MEAN_MOTION_DDOT": 0}, "tle": {"line1": "1 58660U 23208A   25345.56560927  .00022541  00000+0  83051-3 0  9992", "line2": "2 58660  97.4384  96.6048 0004059 258.3743 101.7041 15.27826854108646"}}, "geometry": {"type": "Point", "coordinates": [111.36034696011158, -62.24431584323985]}}, {"type": "Feature", "properties": {"norad_id": 58661, "name": "TIANMU-1 20", "group": "weather", "lat": 7.592759609623718, "lon": 96.43506744907674, "alt_km": 481.33318974620306, "timestamp": "2025-12-11T22:43:46.913827+00:00", "meta": {"OBJECT_NAME": "TIANMU-1 20", "OBJECT_ID": "2023-208B", "EPOCH": "2025-12-11T11:42:06.731424", "MEAN_MOTION": 15.29018979, "ECCENTRICITY": 0.00062989, "INCLINATION": 97.4322, "RA_OF_ASC_NODE": 96.9732, "ARG_OF_PERICENTER": 271.3687, "MEAN_ANOMALY": 88.6831, "EPHEMERIS_TYPE": 0, "CLASSIFICATION_TYPE": "U", "NORAD_CAT_ID": 58661, "ELEMENT_SET_NO": 999, "REV_AT_EPOCH": 10870, "BSTAR": 0.00089991058, "MEAN_MOTION_DOT": 0.00025354, "MEAN_MOTION_DDOT": 0}, "tle": {"line1": "1 58661U 23208B   25345.48757791  .00025354  00000+0  89991-3 0  9995", "line2": "2 58661  97.4322  96.9732 0006298 271.3687  88.6831 15.29018979108701"}}, "geometry": {"type": "Point", "coordinates": [96.43506744907674, 7.592759609623718]}}]}